CCSDS_OMM_VERS,COMMENT,CREATION_DATE,ORIGINATOR,OBJECT_NAME,OBJECT_ID,CENTER_NAME,REF_FRAME,TIME_SYSTEM,MEAN_ELEMENT_THEORY,EPOCH,MEAN_MOTION,ECCENTRICITY,INCLINATION,RA_OF_ASC_NODE,ARG_OF_PERICENTER,MEAN_ANOMALY,EPHEMERIS_TYPE,CLASSIFICATION_TYPE,NORAD_CAT_ID,ELEMENT_SET_NO,REV_AT_EPOCH,BSTAR,MEAN_MOTION_DOT,MEAN_MOTION_DDOT,SEMIMAJOR_AXIS,PERIOD,APOAPSIS,PERIAPSIS,OBJECT_TYPE,RCS_SIZE,COUNTRY_CODE,LAUNCH_DATE,SITE,DECAY_DATE,FILE,GP_ID,TLE_LINE0,TLE_LINE1,TLE_LINE2
2,GENERATED VIA SPACE-TRACK.ORG API,2022-09-09T22:46:13,18 SPCS,JCSAT 2,1990-001B,EARTH,TEME,UTC,SGP4,2022-09-09T15:04:42.579840,0.9854054,0.0054866,14.9027,22.1542,291.888,65.4222,0,U,20402,999,10175,0.0,-2.57e-06,0,42657.155,1461.327,36513.062,36044.977,PAYLOAD,LARGE,JPN,1990-01-01,AFETR,,3565121,212135784,0 JCSAT 2,1 20402U 90001B   22252.62827060 -.00000257  00000-0  00000+0 0  9996,2 20402  14.9027  22.1542 0054866 291.8880  65.4222  0.98540540101754
2,GENERATED VIA SPACE-TRACK.ORG API,2022-09-10T03:00:18,18 SPCS,JCSAT 2,1990-001B,EARTH,TEME,UTC,SGP4,2022-09-09T15:04:42.579840,0.9854054,0.0054866,14.9027,22.1542,291.888,65.4222,0,U,20402,999,10176,0.0,-2.57e-06,0,42657.155,1461.327,36513.062,36044.977,PAYLOAD,LARGE,JPN,1990-01-01,AFETR,,3565505,212149396,0 JCSAT 2,1 20402U 90001B   22252.62827060 -.00000257  00000-0  00000-0 0  9997,2 20402  14.9027  22.1542 0054866 291.8880  65.4222  0.98540540101765
2,GENERATED VIA SPACE-TRACK.ORG API,2022-09-10T17:20:28,18 SPCS,JCSAT 2,1990-001B,EARTH,TEME,UTC,SGP4,2022-09-10T03:06:29.535264,0.98540574,0.0054877,14.9031,22.1501,291.903,243.2267,0,U,20402,999,10177,0.0,-2.61e-06,0,42657.145,1461.327,36513.099,36044.92,PAYLOAD,LARGE,JPN,1990-01-01,AFETR,,3567066,212210024,0 JCSAT 2,1 20402U 90001B   22253.12950851 -.00000261  00000-0  00000-0 0  9993,2 20402  14.9031  22.1501 0054877 291.9030 243.2267  0.98540574101778
2,GENERATED VIA SPACE-TRACK.ORG API,2022-09-11T02:29:39,18 SPCS,JCSAT 2,1990-001B,EARTH,TEME,UTC,SGP4,2022-09-10T20:11:40.663104,0.98540482,0.005488,14.9036,22.1444,291.8939,135.7978,0,U,20402,999,10178,0.0,-2.65e-06,0,42657.171,1461.328,36513.139,36044.934,PAYLOAD,LARGE,JPN,1990-01-01,AFETR,,3567798,212251412,0 JCSAT 2,1 20402U 90001B   22253.84144286 -.00000265  00000-0  00000-0 0  9993,2 20402  14.9036  22.1444 0054880 291.8939 135.7978  0.98540482101783
2,GENERATED VIA SPACE-TRACK.ORG API,2022-09-11T19:34:08,18 SPCS,JCSAT 2,1990-001B,EARTH,TEME,UTC,SGP4,2022-09-11T12:24:48.599424,0.98540414,0.0054885,14.9042,22.1389,291.9041,15.5284,0,U,20402,999,10178,0.0,-2.65e-06,0,42657.191,1461.329,36513.18,36044.932,PAYLOAD,LARGE,JPN,1990-01-01,AFETR,,3568903,212304262,0 JCSAT 2,1 20402U 90001B   22254.51722916 -.00000265  00000-0  00000-0 0  9990,2 20402  14.9042  22.1389 0054885 291.9041  15.5284  0.98540414101788
2,GENERATED VIA SPACE-TRACK.ORG API,2022-09-11T22:56:12,18 SPCS,JCSAT 2,1990-001B,EARTH,TEME,UTC,SGP4,2022-09-11T15:13:59.454624,0.98540373,0.0054883,14.9043,22.138,291.9017,57.2092,0,U,20402,999,10177,0.0,-2.65e-06,0,42657.203,1461.33,36513.183,36044.952,PAYLOAD,LARGE,JPN,1990-01-01,AFETR,,3569079,212328589,0 JCSAT 2,1 20402U 90001B   22254.63471591 -.00000265  00000-0  00000+0 0  9992,2 20402  14.9043  22.1380 0054883 291.9017  57.2092  0.98540373101774
2,GENERATED VIA SPACE-TRACK.ORG API,2022-09-12T03:42:14,18 SPCS,JCSAT 2,1990-001B,EARTH,TEME,UTC,SGP4,2022-09-11T15:13:59.454624,0.98540373,0.0054883,14.9043,22.138,291.9017,57.2092,0,U,20402,999,10178,0.0,-2.65e-06,0,42657.203,1461.33,36513.183,36044.952,PAYLOAD,LARGE,JPN,1990-01-01,AFETR,,3569361,212340214,0 JCSAT 2,1 20402U 90001B   22254.63471591 -.00000265  00000-0  00000-0 0  9993,2 20402  14.9043  22.1380 0054883 291.9017  57.2092  0.98540373101785
2,GENERATED VIA SPACE-TRACK.ORG API,2022-09-12T17:47:28,18 SPCS,JCSAT 2,1990-001B,EARTH,TEME,UTC,SGP4,2022-09-12T12:27:45.639072,0.98540182,0.0054896,14.905,22.1309,291.9008,11.0146,0,U,20402,999,10179,0.0,-2.6e-06,0,42657.258,1461.333,36513.294,36044.952,PAYLOAD,LARGE,JPN,1990-01-01,AFETR,,3570189,212383242,0 JCSAT 2,1 20402U 90001B   22255.51927823 -.00000260  00000-0  00000-0 0  9990,2 20402  14.9050  22.1309 0054896 291.9008  11.0146  0.98540182101795
2,GENERATED VIA SPACE-TRACK.ORG API,2022-09-13T02:14:46,18 SPCS,JCSAT 2,1990-001B,EARTH,TEME,UTC,SGP4,2022-09-12T21:07:39.526176,0.98540149,0.0054895,14.9053,22.128,291.9018,139.0977,0,U,20402,999,10180,0.0,-2.56e-06,0,42657.267,1461.333,36513.299,36044.965,PAYLOAD,LARGE,JPN,1990-01-01,AFETR,,3570509,212414565,0 JCSAT 2,1 20402U 90001B   22255.88031859 -.00000256  00000-0  00000-0 0  9990,2 20402  14.9053  22.1280 0054895 291.9018 139.0977  0.98540149101804
2,GENERATED VIA SPACE-TRACK.ORG API,2022-09-13T18:09:14,18 SPCS,JCSAT 2,1990-001B,EARTH,TEME,UTC,SGP4,2022-09-13T13:56:09.684960,0.98539884,0.0054896,14.9059,22.1223,291.9117,27.5389,0,U,20402,999,10180,0.0,-2.46e-06,0,42657.344,1461.337,36513.381,36045.037,PAYLOAD,LARGE,JPN,1990-01-01,AFETR,,3572069,212471048,0 JCSAT 2,1 20402U 90001B   22256.58066765 -.00000246  00000-0  00000-0 0  9991,2 20402  14.9059  22.1223 0054896 291.9117  27.5389  0.98539884101800
2,GENERATED VIA SPACE-TRACK.ORG API,2022-09-13T22:36:13,18 SPCS,JCSAT 2,1990-001B,EARTH,TEME,UTC,SGP4,2022-09-13T18:32:57.522336,0.98539825,0.0054895,14.906,22.1208,291.9068,95.7354,0,U,20402,999,10179,0.0,-2.43e-06,0,42657.361,1461.338,36513.394,36045.058,PAYLOAD,LARGE,JPN,1990-01-01,AFETR,,3572617,212504052,0 JCSAT 2,1 20402U 90001B   22256.77288799 -.00000243  00000-0  00000+0 0  9991,2 20402  14.9060  22.1208 0054895 291.9068  95.7354  0.98539825101791
2,GENERATED VIA SPACE-TRACK.ORG API,2022-09-14T03:17:59,18 SPCS,JCSAT 2,1990-001B,EARTH,TEME,UTC,SGP4,2022-09-13T20:37:22.958400,0.98539749,0.0054902,14.9061,22.1201,291.899,126.3942,0,U,20402,999,10181,0.0,-2.41e-06,0,42657.383,1461.339,36513.445,36045.05,PAYLOAD,LARGE,JPN,1990-01-01,AFETR,,3573088,212518057,0 JCSAT 2,1 20402U 90001B   22256.85929350 -.00000241  00000-0  00000-0 0  9994,2 20402  14.9061  22.1201 0054902 291.8990 126.3942  0.98539749101819
2,GENERATED VIA SPACE-TRACK.ORG API,2022-09-14T19:09:56,18 SPCS,JCSAT 2,1990-001B,EARTH,TEME,UTC,SGP4,2022-09-14T05:08:12.981696,0.98539623,0.005491,14.9064,22.1173,291.8986,252.2425,0,U,20402,999,10181,0.0,-2.35e-06,0,42657.419,1461.341,36513.516,36045.052,PAYLOAD,LARGE,JPN,1990-01-01,AFETR,,3574027,212564069,0 JCSAT 2,1 20402U 90001B   22257.21403914 -.00000235  00000-0  00000-0 0  9991,2 20402  14.9064  22.1173 0054910 291.8986 252.2425  0.98539623101810
2,GENERATED VIA SPACE-TRACK.ORG API,2022-09-15T03:25:04,18 SPCS,JCSAT 2,1990-001B,EARTH,TEME,UTC,SGP4,2022-09-14T20:53:02.973120,0.98539366,0.0054905,14.9069,22.112,291.8954,125.0125,0,U,20402,999,10182,0.0,-2.2e-06,0,42657.493,1461.345,36513.569,36045.147,PAYLOAD,LARGE,JPN,1990-01-01,AFETR,,3574287,212595725,0 JCSAT 2,1 20402U 90001B   22257.87017330 -.00000220  00000-0  00000-0 0  9990,2 20402  14.9069  22.1120 0054905 291.8954 125.0125  0.98539366101825
2,GENERATED VIA SPACE-TRACK.ORG API,2022-09-15T17:58:01,18 SPCS,JCSAT 2,1990-001B,EARTH,TEME,UTC,SGP4,2022-09-15T13:47:33.165888,0.98539021,0.0054909,14.9075,22.1064,291.9007,14.935,0,U,20402,999,10182,0.0,-2.03e-06,0,42657.593,1461.35,36513.687,36045.229,PAYLOAD,LARGE,JPN,1990-01-01,AFETR,,3574601,212628387,0 JCSAT 2,1 20402U 90001B   22258.57468942 -.00000203  00000-0  00000-0 0  9998,2 20402  14.9075  22.1064 0054909 291.9007  14.9350  0.98539021101827
2,GENERATED VIA SPACE-TRACK.ORG API,2022-09-16T03:02:57,18 SPCS,JCSAT 2,1990-001B,EARTH,TEME,UTC,SGP4,2022-09-15T21:17:14.637408,0.98538856,0.0054915,14.9078,22.1039,291.8841,125.7347,0,U,20402,999,10183,0.0,-1.94e-06,0,42657.641,1461.352,36513.76,36045.251,PAYLOAD,LARGE,JPN,1990-01-01,AFETR,,3575050,212664542,0 JCSAT 2,1 20402U 90001B   22258.88697497 -.00000194  00000-0  00000-0 0  9990,2 20402  14.9078  22.1039 0054915 291.8841 125.7347  0.98538856101837
2,GENERATED VIA SPACE-TRACK.ORG API,2022-09-16T07:06:16,18 SPCS,JCSAT 2,1990-001B,EARTH,TEME,UTC,SGP4,2022-09-15T21:17:14.637408,0.98538856,0.0054915,14.9078,22.1039,291.8841,125.7347,0,U,20402,999,10181,0.0,-1.94e-06,0,42657.641,1461.352,36513.76,36045.251,PAYLOAD,LARGE,JPN,1990-01-01,AFETR,,3575199,212687825,0 JCSAT 2,1 20402U 90001B   22258.88697497 -.00000194  00000-0  00000+0 0  9999,2 20402  14.9078  22.1039 0054915 291.8841 125.7347  0.98538856101815
2,GENERATED VIA SPACE-TRACK.ORG API,2022-09-16T18:51:30,18 SPCS,JCSAT 2,1990-001B,EARTH,TEME,UTC,SGP4,2022-09-16T13:48:05.887296,0.98538533,0.0054919,14.9084,22.0984,291.8845,9.8363,0,U,20402,999,10183,0.0,-1.75e-06,0,42657.734,1461.357,36513.871,36045.327,PAYLOAD,LARGE,JPN,1990-01-01,AFETR,,3575604,212701402,0 JCSAT 2,1 20402U 90001B   22259.57506814 -.00000175  00000-0  00000-0 0  9998,2 20402  14.9084  22.0984 0054919 291.8845   9.8363  0.98538533101832
2,GENERATED VIA SPACE-TRACK.ORG API,2022-09-17T04:39:31,18 SPCS,JCSAT 2,1990-001B,EARTH,TEME,UTC,SGP4,2022-09-16T17:49:42.863808,0.98538454,0.0054915,14.9085,22.097,291.8861,69.3582,0,U,20402,999,10184,0.0,-1.7e-06,0,42657.757,1461.358,36513.877,36045.367,PAYLOAD,LARGE,JPN,1990-01-01,AFETR,,3575787,212731709,0 JCSAT 2,1 20402U 90001B   22259.74285722 -.00000170  00000-0  00000-0 0  9994,2 20402  14.9085  22.0970 0054915 291.8861  69.3582  0.98538454101849
2,GENERATED VIA SPACE-TRACK.ORG API,2022-09-18T02:09:51,18 SPCS,JCSAT 2,1990-001B,EARTH,TEME,UTC,SGP4,2022-09-17T19:59:10.455360,0.98537939,0.0054923,14.9094,22.0883,291.8699,96.017,0,U,20402,999,10185,0.0,-1.36e-06,0,42657.905,1461.366,36514.06,36045.48,PAYLOAD,LARGE,JPN,1990-01-01,AFETR,,3576621,212852552,0 JCSAT 2,1 20402U 90001B   22260.83275990 -.00000136  00000-0  00000-0 0  9994,2 20402  14.9094  22.0883 0054923 291.8699  96.0170  0.98537939101858
